{"type":"Feature","properties":{"note":"mondo meno Italia, per mascherare le tile fuori dai confini"},"geometry":{"type":"Polygon","coordinates":[[[-30.0,20.0],[-30.0,60.0],[50.0,60.0],[50.0,20.0],[-30.0,20.0]],[[6.646,45.082],[6.646,45.075],[6.662,45.071],[6.665,45.032],[6.679,45.02],[6.726,45.022],[6.746,45.013],[6.751,44.998],[6.74,44.99],[6.764,44.971],[6.765,44.96],[6.743,44.936],[6.758,44.933],[6.749,44.922],[6.75,44.907],[6.768,44.902],[6.786,44.889],[6.8,44.886],[6.808,44.876],[6.871,44.85],[6.913,44.845],[6.933,44.863],[6.963,44.85],[7.006,44.838],[7.009,44.827],[7.023,44.823],[7.002,44.791],[7.02,44.775],[7.022,44.748],[7.031,44.729],[7.041,44.72],[7.065,44.713],[7.075,44.69],[7.073,44.682],[7.049,44.683],[7.03,44.691],[6.987,44.69],[6.959,44.674],[6.948,44.654],[6.955,44.635],[6.968,44.625],[6.964,44.619],[6.95,44.619],[6.935,44.598],[6.933,44.573],[6.912,44.568],[6.904,44.556],[6.881,44.554],[6.854,44.529],[6.859,44.509],[6.876,44.481],[6.907,44.466],[6.912,44.453],[6.945,44.431],[6.922,44.424],[6.893,44.421],[6.897,44.404],[6.897,44.376],[6.889,44.361],[6.919,44.353],[6.926,44.334],[6.953,44.319],[6.96,44.307],[6.956,44.298],[6.97,44.289],[6.995,44.281],[6.997,44.25],[7.013,44.233],[7.033,44.224],[7.07,44.234],[7.091,44.223],[7.118,44.215],[7.147,44.2],[7.161,44.207],[7.177,44.198],[7.186,44.201],[7.193,44.188],[7.217,44.17],[7.243,44.172],[7.251,44.156],[7.278,44.142],[7.292,44.146],[7.343,44.145],[7.355,44.118],[7.366,44.117],[7.393,44.126],[7.421,44.113],[7.429,44.13],[7.458,44.127],[7.508,44.144],[7.522,44.138],[7.535,44.147],[7.556,44.148],[7.566,44.155],[7.619,44.149],[7.636,44.177],[7.683,44.173],[7.671,44.153],[7.678,44.146],[7.667,44.13],[7.671,44.122],[7.69,44.109],[7.717,44.082],[7.714,44.062],[7.703,44.045],[7.666,44.031],[7.662,44.018],[7.67,43.998],[7.649,43.974],[7.613,43.957],[7.588,43.955],[7.567,43.944],[7.572,43.935],[7.56,43.915],[7.562,43.901],[7.515,43.884],[7.495,43.862],[7.499,43.846],[7.508,43.841],[7.518,43.805],[7.531,43.784],[7.556,43.78],[7.569,43.792],[7.592,43.791],[7.673,43.776],[7.7,43.799],[7.713,43.801],[7.735,43.796],[7.787,43.82],[7.805,43.823],[7.83,43.816],[7.847,43.829],[7.876,43.836],[7.908,43.836],[7.916,43.843],[7.941,43.845],[7.966,43.852],[7.971,43.86],[8.015,43.872],[8.023,43.88],[8.045,43.887],[8.068,43.889],[8.081,43.898],[8.08,43.906],[8.094,43.917],[8.128,43.927],[8.141,43.947],[8.171,43.953],[8.159,43.981],[8.168,44.0],[8.227,44.048],[8.227,44.08],[8.237,44.102],[8.249,44.117],[8.269,44.132],[8.275,44.144],[8.294,44.153],[8.329,44.161],[8.383,44.181],[8.399,44.181],[8.422,44.193],[8.416,44.222],[8.443,44.238],[8.456,44.258],[8.441,44.27],[8.448,44.285],[8.465,44.296],[8.489,44.304],[8.497,44.321],[8.526,44.331],[8.55,44.344],[8.564,44.346],[8.568,44.355],[8.624,44.372],[8.649,44.39],[8.678,44.393],[8.693,44.408],[8.724,44.417],[8.741,44.426],[8.755,44.427],[8.797,44.417],[8.799,44.422],[8.833,44.423],[8.84,44.421],[8.841,44.418],[8.822,44.415],[8.871,44.405],[8.885,44.406],[8.918,44.398],[8.912,44.408],[8.922,44.412],[8.931,44.396],[8.973,44.39],[8.984,44.392],[8.999,44.386],[9.058,44.38],[9.14,44.36],[9.155,44.348],[9.151,44.318],[9.219,44.299],[9.213,44.311],[9.216,44.334],[9.225,44.335],[9.236,44.347],[9.246,44.341],[9.359,44.3],[9.387,44.283],[9.39,44.27],[9.403,44.252],[9.418,44.26],[9.433,44.254],[9.44,44.242],[9.469,44.234],[9.48,44.241],[9.495,44.235],[9.503,44.222],[9.527,44.208],[9.548,44.207],[9.591,44.173],[9.605,44.172],[9.607,44.157],[9.635,44.134],[9.643,44.144],[9.668,44.142],[9.725,44.113],[9.739,44.092],[9.754,44.091],[9.799,44.064],[9.822,44.058],[9.833,44.049],[9.852,44.06],[9.839,44.065],[9.822,44.093],[9.836,44.11],[9.85,44.11],[9.865,44.093],[9.881,44.081],[9.907,44.081],[9.912,44.069],[9.964,44.037],[9.977,44.036],[9.995,44.051],[10.019,44.044],[10.035,44.035],[10.06,44.029],[10.091,44.013],[10.144,43.975],[10.181,43.942],[10.21,43.911],[10.238,43.873],[10.238,43.856],[10.258,43.814],[10.277,43.738],[10.277,43.714],[10.282,43.693],[10.28,43.681],[10.27,43.677],[10.286,43.642],[10.292,43.594],[10.299,43.579],[10.294,43.561],[10.304,43.567],[10.307,43.566],[10.293,43.547],[10.313,43.52],[10.322,43.496],[10.331,43.484],[10.33,43.474],[10.379,43.449],[10.4,43.422],[10.405,43.405],[10.425,43.399],[10.441,43.371],[10.444,43.354],[10.455,43.345],[10.455,43.329],[10.463,43.318],[10.501,43.292],[10.521,43.252],[10.53,43.222],[10.538,43.17],[10.54,43.134],[10.537,43.084],[10.532,43.053],[10.522,43.022],[10.511,43.011],[10.515,42.999],[10.506,42.99],[10.485,42.99],[10.485,42.966],[10.499,42.936],[10.525,42.92],[10.545,42.922],[10.544,42.93],[10.563,42.951],[10.618,42.954],[10.677,42.95],[10.712,42.94],[10.754,42.922],[10.775,42.907],[10.786,42.888],[10.772,42.872],[10.77,42.863],[10.776,42.844],[10.765,42.816],[10.754,42.807],[10.731,42.802],[10.785,42.775],[10.811,42.775],[10.846,42.769],[10.921,42.75],[10.952,42.737],[10.98,42.716],[11.014,42.657],[11.071,42.635],[11.085,42.626],[11.082,42.613],[11.099,42.605],[11.123,42.558],[11.134,42.551],[11.137,42.559],[11.159,42.561],[11.178,42.539],[11.189,42.52],[11.192,42.501],[11.187,42.471],[11.179,42.453],[11.157,42.434],[11.132,42.439],[11.122,42.435],[11.112,42.447],[11.104,42.447],[11.089,42.427],[11.09,42.409],[11.098,42.393],[11.126,42.386],[11.151,42.371],[11.153,42.361],[11.165,42.368],[11.19,42.365],[11.192,42.379],[11.213,42.387],[11.207,42.402],[11.222,42.414],[11.253,42.42],[11.278,42.416],[11.28,42.409],[11.348,42.401],[11.418,42.387],[11.493,42.364],[11.562,42.335],[11.632,42.295],[11.665,42.268],[11.68,42.247],[11.694,42.236],[11.721,42.189],[11.739,42.17],[11.734,42.158],[11.76,42.115],[11.788,42.089],[11.798,42.086],[11.836,42.029],[11.878,42.038],[11.913,42.04],[11.964,42.014],[11.979,41.997],[12.007,41.991],[12.025,41.982],[12.052,41.956],[12.075,41.948],[12.09,41.937],[12.121,41.928],[12.141,41.915],[12.163,41.892],[12.199,41.838],[12.224,41.781],[12.22,41.768],[12.228,41.755],[12.222,41.744],[12.282,41.727],[12.321,41.711],[12.365,41.689],[12.44,41.638],[12.542,41.546],[12.615,41.457],[12.618,41.446],[12.631,41.444],[12.641,41.453],[12.664,41.457],[12.695,41.45],[12.764,41.41],[12.782,41.418],[12.807,41.414],[12.836,41.415],[12.868,41.407],[12.901,41.392],[12.948,41.364],[12.97,41.346],[12.999,41.314],[13.029,41.265],[13.034,41.241],[13.046,41.227],[13.073,41.223],[13.094,41.225],[13.107,41.242],[13.172,41.275],[13.206,41.283],[13.258,41.283],[13.266,41.294],[13.281,41.297],[13.355,41.287],[13.408,41.269],[13.472,41.237],[13.485,41.238],[13.51,41.221],[13.529,41.22],[13.546,41.209],[13.56,41.211],[13.57,41.204],[13.589,41.21],[13.571,41.218],[13.571,41.234],[13.585,41.247],[13.62,41.26],[13.651,41.257],[13.684,41.244],[13.707,41.253],[13.722,41.247],[13.762,41.223],[13.814,41.184],[13.832,41.167],[13.886,41.101],[13.902,41.076],[13.922,41.026],[13.955,40.998],[14.007,40.942],[14.025,40.913],[14.042,40.872],[14.048,40.836],[14.041,40.795],[14.048,40.79],[14.083,40.786],[14.08,40.791],[14.088,40.794],[14.082,40.812],[14.074,40.818],[14.09,40.831],[14.109,40.831],[14.125,40.82],[14.159,40.817],[14.172,40.799],[14.19,40.794],[14.207,40.802],[14.214,40.82],[14.227,40.831],[14.247,40.829],[14.266,40.844],[14.308,40.83],[14.332,40.814],[14.354,40.792],[14.409,40.754],[14.449,40.753],[14.471,40.729],[14.482,40.704],[14.474,40.693],[14.464,40.693],[14.439,40.682],[14.431,40.666],[14.404,40.656],[14.407,40.651],[14.4,40.638],[14.365,40.628],[14.354,40.633],[14.339,40.626],[14.341,40.618],[14.33,40.606],[14.323,40.59],[14.323,40.57],[14.407,40.599],[14.419,40.61],[14.456,40.62],[14.466,40.619],[14.486,40.627],[14.511,40.62],[14.528,40.607],[14.539,40.613],[14.577,40.618],[14.619,40.645],[14.633,40.649],[14.682,40.633],[14.693,40.635],[14.719,40.666],[14.759,40.677],[14.788,40.666],[14.809,40.652],[14.846,40.62],[14.898,40.561],[14.941,40.483],[14.978,40.431],[14.994,40.402],[15.001,40.38],[14.998,40.359],[14.979,40.352],[14.968,40.34],[14.946,40.337],[14.939,40.319],[14.947,40.298],[14.943,40.276],[14.905,40.253],[14.91,40.244],[14.935,40.229],[14.953,40.233],[14.969,40.222],[14.991,40.219],[15.012,40.202],[15.025,40.179],[15.035,40.172],[15.066,40.165],[15.085,40.173],[15.117,40.177],[15.133,40.171],[15.178,40.128],[15.204,40.124],[15.23,40.101],[15.264,40.082],[15.282,40.055],[15.285,40.038],[15.268,40.031],[15.272,40.022],[15.315,40.032],[15.343,40.005],[15.369,39.998],[15.425,39.994],[15.432,40.006],[15.464,40.035],[15.481,40.039],[15.505,40.065],[15.532,40.074],[15.575,40.078],[15.63,40.068],[15.626,40.059],[15.645,40.043],[15.664,40.04],[15.674,40.03],[15.675,40.015],[15.686,40.002],[15.71,39.986],[15.732,39.962],[15.736,39.942],[15.756,39.924],[15.779,39.894],[15.792,39.859],[15.79,39.851],[15.769,39.837],[15.786,39.813],[15.804,39.744],[15.816,39.68],[15.832,39.668],[15.844,39.628],[15.851,39.619],[15.872,39.56],[15.881,39.545],[15.925,39.527],[15.962,39.475],[15.979,39.462],[15.999,39.435],[16.039,39.341],[16.044,39.313],[16.053,39.286],[16.063,39.16],[16.068,39.134],[16.082,39.095],[16.098,39.032],[16.122,39.003],[16.136,38.991],[16.159,38.949],[16.17,38.948],[16.19,38.935],[16.211,38.931],[16.219,38.917],[16.22,38.839],[16.214,38.812],[16.202,38.783],[16.181,38.747],[16.131,38.716],[16.106,38.712],[16.041,38.727],[15.986,38.723],[15.973,38.715],[15.948,38.691],[15.871,38.672],[15.849,38.66],[15.836,38.645],[15.827,38.619],[15.844,38.613],[15.894,38.576],[15.904,38.563],[15.929,38.549],[15.93,38.532],[15.919,38.507],[15.903,38.441],[15.89,38.439],[15.876,38.422],[15.861,38.392],[15.862,38.385],[15.833,38.356],[15.828,38.322],[15.815,38.299],[15.794,38.28],[15.75,38.257],[15.729,38.253],[15.714,38.255],[15.679,38.247],[15.671,38.241],[15.636,38.232],[15.633,38.222],[15.634,38.186],[15.641,38.169],[15.651,38.159],[15.656,38.135],[15.648,38.116],[15.631,38.103],[15.636,38.075],[15.65,38.067],[15.648,38.055],[15.657,38.041],[15.654,38.031],[15.634,38.02],[15.646,37.991],[15.678,37.955],[15.697,37.949],[15.707,37.938],[15.733,37.926],[15.743,37.926],[15.764,37.916],[15.811,37.92],[15.828,37.918],[15.92,37.93],[15.953,37.921],[16.001,37.917],[16.02,37.923],[16.047,37.922],[16.064,37.926],[16.097,37.956],[16.114,37.978],[16.144,38.032],[16.161,38.128],[16.172,38.143],[16.193,38.158],[16.315,38.285],[16.335,38.3],[16.44,38.329],[16.474,38.344],[16.499,38.361],[16.573,38.429],[16.583,38.459],[16.58,38.503],[16.572,38.535],[16.571,38.589],[16.562,38.616],[16.556,38.655],[16.559,38.681],[16.555,38.69],[16.537,38.702],[16.535,38.712],[16.543,38.727],[16.57,38.755],[16.568,38.766],[16.605,38.811],[16.624,38.825],[16.637,38.827],[16.676,38.845],[16.751,38.885],[16.784,38.899],[16.891,38.928],[16.963,38.939],[16.985,38.937],[17.006,38.916],[17.022,38.906],[17.03,38.915],[17.047,38.919],[17.082,38.913],[17.1,38.903],[17.17,38.958],[17.16,38.971],[17.166,38.997],[17.188,39.02],[17.207,39.028],[17.173,39.033],[17.146,39.047],[17.134,39.061],[17.13,39.073],[17.138,39.08],[17.115,39.091],[17.109,39.115],[17.123,39.158],[17.148,39.205],[17.131,39.22],[17.107,39.251],[17.105,39.269],[17.111,39.289],[17.113,39.32],[17.133,39.36],[17.136,39.375],[17.157,39.401],[17.116,39.406],[17.08,39.422],[17.05,39.441],[17.037,39.457],[17.027,39.48],[17.014,39.487],[16.98,39.491],[16.945,39.502],[16.942,39.507],[16.867,39.539],[16.825,39.57],[16.818,39.588],[16.779,39.616],[16.756,39.624],[16.738,39.617],[16.685,39.621],[16.63,39.62],[16.606,39.625],[16.567,39.641],[16.519,39.668],[16.526,39.68],[16.529,39.724],[16.507,39.736],[16.492,39.752],[16.487,39.787],[16.492,39.808],[16.502,39.826],[16.519,39.844],[16.538,39.871],[16.558,39.892],[16.583,39.911],[16.628,39.959],[16.629,39.967],[16.618,39.978],[16.611,39.996],[16.61,40.015],[16.6,40.036],[16.606,40.08],[16.644,40.119],[16.686,40.147],[16.733,40.203],[16.752,40.249],[16.787,40.303],[16.814,40.331],[16.867,40.398],[16.903,40.436],[16.946,40.468],[16.996,40.495],[17.044,40.512],[17.086,40.52],[17.13,40.517],[17.146,40.51],[17.147,40.495],[17.163,40.505],[17.182,40.482],[17.192,40.477],[17.227,40.48],[17.249,40.459],[17.249,40.442],[17.23,40.424],[17.212,40.423],[17.206,40.409],[17.223,40.409],[17.235,40.401],[17.275,40.386],[17.279,40.38],[17.296,40.379],[17.324,40.362],[17.34,40.362],[17.349,40.355],[17.375,40.348],[17.396,40.332],[17.443,40.33],[17.458,40.317],[17.495,40.31],[17.51,40.295],[17.694,40.304],[17.761,40.298],[17.817,40.289],[17.839,40.282],[17.854,40.286],[17.879,40.272],[17.891,40.26],[17.901,40.258],[17.908,40.242],[17.925,40.224],[17.918,40.194],[17.938,40.171],[17.961,40.152],[17.986,40.14],[18.01,40.109],[18.011,40.086],[18.001,40.068],[17.979,40.056],[18.004,40.048],[18.019,40.027],[18.017,40.007],[18.006,39.996],[17.995,39.994],[18.015,39.968],[18.024,39.964],[18.03,39.949],[18.05,39.928],[18.063,39.922],[18.088,39.899],[18.12,39.885],[18.148,39.863],[18.203,39.839],[18.238,39.835],[18.266,39.836],[18.301,39.819],[18.315,39.808],[18.326,39.807],[18.334,39.796],[18.346,39.791],[18.36,39.797],[18.369,39.794],[18.391,39.817],[18.385,39.841],[18.398,39.871],[18.397,39.896],[18.39,39.909],[18.403,39.96],[18.417,39.993],[18.432,40.001],[18.436,40.025],[18.474,40.044],[18.483,40.077],[18.52,40.107],[18.508,40.124],[18.514,40.133],[18.506,40.144],[18.49,40.147],[18.478,40.18],[18.464,40.193],[18.458,40.212],[18.465,40.222],[18.445,40.255],[18.441,40.269],[18.43,40.273],[18.425,40.291],[18.389,40.313],[18.351,40.352],[18.315,40.375],[18.301,40.395],[18.279,40.407],[18.249,40.438],[18.203,40.467],[18.186,40.469],[18.166,40.481],[18.127,40.493],[18.109,40.51],[18.08,40.526],[18.074,40.539],[18.055,40.549],[18.036,40.569],[18.045,40.598],[18.021,40.618],[18.017,40.64],[17.999,40.649],[17.986,40.644],[17.969,40.649],[17.954,40.646],[17.954,40.649],[17.976,40.663],[17.954,40.664],[17.942,40.682],[17.926,40.679],[17.843,40.69],[17.8,40.71],[17.799,40.715],[17.775,40.721],[17.748,40.733],[17.709,40.758],[17.677,40.769],[17.601,40.787],[17.515,40.814],[17.474,40.832],[17.47,40.84],[17.422,40.866],[17.383,40.895],[17.352,40.905],[17.328,40.935],[17.306,40.951],[17.302,40.958],[17.238,40.992],[17.206,41.001],[17.176,41.029],[17.146,41.036],[17.058,41.076],[16.96,41.097],[16.927,41.112],[16.891,41.119],[16.873,41.126],[16.873,41.14],[16.865,41.13],[16.853,41.13],[16.845,41.14],[16.835,41.137],[16.811,41.14],[16.793,41.148],[16.779,41.16],[16.763,41.161],[16.683,41.182],[16.675,41.189],[16.633,41.193],[16.584,41.212],[16.56,41.225],[16.542,41.23],[16.531,41.239],[16.448,41.262],[16.419,41.283],[16.401,41.285],[16.359,41.305],[16.277,41.324],[16.243,41.337],[16.213,41.357],[16.171,41.369],[16.135,41.388],[16.129,41.386],[15.996,41.438],[15.962,41.458],[15.933,41.484],[15.919,41.504],[15.904,41.535],[15.894,41.576],[15.897,41.604],[15.907,41.621],[15.946,41.643],[16.039,41.68],[16.065,41.696],[16.073,41.711],[16.088,41.714],[16.105,41.73],[16.144,41.743],[16.162,41.754],[16.168,41.766],[16.19,41.777],[16.195,41.796],[16.197,41.822],[16.177,41.855],[16.178,41.879],[16.185,41.884],[16.161,41.892],[16.141,41.914],[16.118,41.917],[16.09,41.939],[16.059,41.948],[16.024,41.946],[16.01,41.95],[15.98,41.942],[15.898,41.93],[15.8,41.92],[15.683,41.914],[15.666,41.921],[15.62,41.929],[15.502,41.909],[15.416,41.901],[15.357,41.905],[15.341,41.917],[15.168,41.922],[15.091,41.938],[15.077,41.944],[15.054,41.964],[15.004,41.992],[14.999,42.006],[14.955,42.011],[14.889,42.024],[14.828,42.047],[14.794,42.066],[14.752,42.081],[14.724,42.099],[14.718,42.108],[14.723,42.124],[14.717,42.149],[14.716,42.173],[14.696,42.176],[14.609,42.204],[14.563,42.224],[14.508,42.253],[14.5,42.274],[14.441,42.312],[14.425,42.327],[14.412,42.357],[14.394,42.371],[14.316,42.408],[14.261,42.44],[14.229,42.466],[14.189,42.492],[14.154,42.526],[14.109,42.563],[14.063,42.617],[14.04,42.653],[13.993,42.713],[13.977,42.747],[13.951,42.79],[13.93,42.844],[13.916,42.895],[13.881,42.964],[13.853,43.055],[13.844,43.101],[13.817,43.147],[13.779,43.235],[13.763,43.258],[13.736,43.308],[13.71,43.337],[13.67,43.426],[13.627,43.496],[13.622,43.535],[13.626,43.55],[13.609,43.559],[13.579,43.567],[13.552,43.603],[13.526,43.622],[13.507,43.631],[13.504,43.618],[13.495,43.622],[13.482,43.607],[13.453,43.611],[13.41,43.625],[13.373,43.645],[13.355,43.648],[13.308,43.668],[13.27,43.688],[13.138,43.771],[13.021,43.852],[13.003,43.856],[12.907,43.923],[12.892,43.924],[12.798,43.965],[12.713,43.975],[12.688,43.987],[12.632,44.025],[12.575,44.079],[12.556,44.079],[12.516,44.105],[12.428,44.181],[12.408,44.202],[12.392,44.213],[12.368,44.249],[12.351,44.286],[12.343,44.319],[12.33,44.346],[12.315,44.407],[12.292,44.454],[12.286,44.485],[12.294,44.489],[12.281,44.512],[12.283,44.587],[12.276,44.615],[12.256,44.649],[12.24,44.691],[12.244,44.74],[12.257,44.78],[12.285,44.816],[12.27,44.807],[12.26,44.816],[12.29,44.842],[12.316,44.841],[12.335,44.824],[12.382,44.791],[12.365,44.787],[12.326,44.795],[12.336,44.791],[12.33,44.787],[12.375,44.784],[12.398,44.793],[12.422,44.811],[12.416,44.82],[12.424,44.827],[12.466,44.844],[12.481,44.868],[12.51,44.927],[12.541,44.955],[12.555,44.96],[12.554,44.969],[12.509,44.995],[12.485,44.993],[12.401,45.042],[12.344,45.089],[12.337,45.098],[12.327,45.137],[12.335,45.164],[12.306,45.195],[12.3,45.216],[12.305,45.229],[12.298,45.246],[12.307,45.286],[12.325,45.328],[12.343,45.334],[12.33,45.338],[12.332,45.354],[12.361,45.396],[12.379,45.414],[12.402,45.429],[12.428,45.419],[12.451,45.437],[12.468,45.445],[12.584,45.479],[12.644,45.503],[12.719,45.525],[12.788,45.557],[12.867,45.588],[12.893,45.601],[12.906,45.612],[12.974,45.625],[13.098,45.635],[13.109,45.663],[13.151,45.692],[13.153,45.701],[13.171,45.703],[13.186,45.711],[13.245,45.713],[13.255,45.708],[13.291,45.704],[13.323,45.687],[13.352,45.679],[13.368,45.683],[13.386,45.675],[13.424,45.677],[13.455,45.69],[13.468,45.703],[13.487,45.705],[13.531,45.723],[13.551,45.723],[13.554,45.729],[13.526,45.737],[13.517,45.745],[13.521,45.763],[13.546,45.787],[13.547,45.792],[13.562,45.778],[13.583,45.78],[13.599,45.773],[13.631,45.768],[13.644,45.756],[13.677,45.737],[13.711,45.711],[13.712,45.705],[13.733,45.696],[13.753,45.68],[13.768,45.654],[13.755,45.65],[13.747,45.639],[13.757,45.628],[13.767,45.637],[13.776,45.634],[13.776,45.619],[13.784,45.613],[13.803,45.611],[13.786,45.599],[13.773,45.605],[13.74,45.61],[13.72,45.606],[13.723,45.595],[13.746,45.598],[13.781,45.584],[13.811,45.581],[13.849,45.585],[13.874,45.61],[13.918,45.631],[13.903,45.643],[13.879,45.652],[13.858,45.666],[13.832,45.692],[13.835,45.701],[13.827,45.714],[13.811,45.723],[13.796,45.743],[13.736,45.76],[13.73,45.767],[13.705,45.777],[13.671,45.798],[13.623,45.798],[13.596,45.808],[13.589,45.831],[13.575,45.85],[13.591,45.873],[13.59,45.888],[13.609,45.899],[13.636,45.934],[13.635,45.954],[13.642,45.984],[13.633,45.989],[13.62,45.984],[13.585,45.988],[13.569,45.969],[13.531,45.966],[13.516,45.978],[13.5,45.982],[13.477,46.005],[13.497,46.018],[13.51,46.046],[13.498,46.05],[13.502,46.062],[13.53,46.068],[13.547,46.083],[13.572,46.089],[13.603,46.113],[13.64,46.135],[13.652,46.148],[13.663,46.18],[13.646,46.188],[13.615,46.184],[13.586,46.19],[13.566,46.188],[13.561,46.204],[13.53,46.217],[13.499,46.217],[13.496,46.222],[13.456,46.226],[13.445,46.224],[13.445,46.213],[13.422,46.206],[13.412,46.213],[13.422,46.234],[13.406,46.243],[13.397,46.258],[13.392,46.28],[13.378,46.296],[13.38,46.298],[13.403,46.3],[13.418,46.318],[13.447,46.33],[13.437,46.354],[13.448,46.363],[13.467,46.361],[13.482,46.369],[13.516,46.377],[13.518,46.383],[13.533,46.386],[13.57,46.402],[13.577,46.409],[13.582,46.43],[13.599,46.439],[13.647,46.446],[13.684,46.437],[13.697,46.454],[13.695,46.468],[13.705,46.477],[13.703,46.501],[13.716,46.508],[13.714,46.523],[13.675,46.523],[13.627,46.542],[13.591,46.546],[13.571,46.539],[13.564,46.551],[13.542,46.554],[13.516,46.548],[13.504,46.566],[13.476,46.558],[13.427,46.558],[13.409,46.562],[13.406,46.572],[13.373,46.579],[13.368,46.568],[13.346,46.569],[13.321,46.552],[13.301,46.559],[13.267,46.56],[13.237,46.553],[13.215,46.57],[13.197,46.572],[13.164,46.589],[13.143,46.589],[13.082,46.6],[13.045,46.596],[13.023,46.601],[12.988,46.599],[12.935,46.608],[12.868,46.609],[12.852,46.605],[12.835,46.611],[12.837,46.627],[12.803,46.634],[12.792,46.643],[12.762,46.648],[12.732,46.634],[12.717,46.648],[12.686,46.656],[12.667,46.657],[12.642,46.652],[12.632,46.66],[12.579,46.656],[12.565,46.651],[12.546,46.659],[12.527,46.674],[12.514,46.678],[12.479,46.68],[12.474,46.687],[12.443,46.688],[12.38,46.72],[12.368,46.743],[12.357,46.775],[12.311,46.784],[12.286,46.783],[12.282,46.791],[12.292,46.803],[12.284,46.815],[12.306,46.835],[12.296,46.846],[12.29,46.862],[12.276,46.873],[12.268,46.887],[12.243,46.89],[12.218,46.874],[12.208,46.88],[12.189,46.906],[12.16,46.908],[12.146,46.914],[12.167,46.933],[12.157,46.951],[12.133,46.964],[12.138,46.98],[12.122,47.007],[12.148,47.024],[12.167,47.021],[12.205,47.027],[12.216,47.045],[12.218,47.059],[12.24,47.07],[12.224,47.083],[12.187,47.092],[12.161,47.082],[12.136,47.08],[12.12,47.074],[12.094,47.077],[12.073,47.06],[12.043,47.061],[12.02,47.047],[11.978,47.05],[11.944,47.035],[11.932,47.037],[11.888,47.016],[11.867,47.011],[11.831,46.992],[11.814,46.99],[11.781,46.992],[11.766,46.975],[11.747,46.969],[11.73,46.972],[11.711,46.993],[11.667,46.992],[11.639,47.002],[11.628,47.012],[11.616,47.012],[11.581,47.001],[11.58,46.997],[11.539,46.984],[11.532,46.992],[11.499,47.01],[11.48,47.011],[11.467,46.994],[11.453,46.992],[11.443,46.978],[11.425,46.969],[11.401,46.965],[11.384,46.97],[11.358,46.99],[11.335,46.987],[11.321,46.992],[11.299,46.984],[11.259,46.978],[11.241,46.97],[11.205,46.965],[11.19,46.97],[11.177,46.963],[11.165,46.965],[11.167,46.944],[11.141,46.928],[11.12,46.93],[11.095,46.907],[11.1,46.89],[11.075,46.858],[11.072,46.84],[11.083,46.823],[11.042,46.803],[11.022,46.766],[11.014,46.772],[10.994,46.767],[10.945,46.775],[10.915,46.774],[10.89,46.764],[10.873,46.766],[10.866,46.773],[10.84,46.782],[10.825,46.774],[10.811,46.778],[10.786,46.796],[10.759,46.786],[10.731,46.788],[10.727,46.798],[10.746,46.804],[10.763,46.821],[10.756,46.831],[10.734,46.835],[10.696,46.851],[10.697,46.863],[10.668,46.876],[10.645,46.865],[10.624,46.864],[10.601,46.858],[10.564,46.841],[10.551,46.841],[10.551,46.85],[10.525,46.846],[10.496,46.849],[10.479,46.859],[10.47,46.855],[10.449,46.802],[10.427,46.794],[10.427,46.786],[10.442,46.77],[10.441,46.753],[10.402,46.734],[10.417,46.719],[10.416,46.71],[10.402,46.704],[10.388,46.687],[10.393,46.655],[10.411,46.635],[10.446,46.641],[10.491,46.615],[10.485,46.595],[10.484,46.578],[10.475,46.566],[10.472,46.544],[10.453,46.531],[10.437,46.537],[10.419,46.551],[10.398,46.544],[10.363,46.556],[10.352,46.556],[10.342,46.544],[10.325,46.551],[10.311,46.547],[10.297,46.55],[10.289,46.568],[10.271,46.576],[10.254,46.572],[10.244,46.578],[10.242,46.591],[10.256,46.608],[10.239,46.635],[10.21,46.62],[10.191,46.626],[10.13,46.606],[10.102,46.611],[10.098,46.597],[10.1,46.583],[10.081,46.575],[10.084,46.566],[10.06,46.546],[10.044,46.538],[10.053,46.53],[10.047,46.511],[10.044,46.483],[10.053,46.461],[10.04,46.446],[10.054,46.441],[10.059,46.43],[10.08,46.421],[10.101,46.423],[10.131,46.432],[10.143,46.428],[10.148,46.417],[10.161,46.415],[10.163,46.391],[10.141,46.386],[10.128,46.378],[10.129,46.363],[10.111,46.353],[10.106,46.331],[10.117,46.314],[10.139,46.305],[10.173,46.265],[10.175,46.256],[10.151,46.24],[10.146,46.23],[10.124,46.224],[10.095,46.229],[10.071,46.217],[10.048,46.228],[10.06,46.251],[10.056,46.264],[10.03,46.277],[9.998,46.283],[9.993,46.293],[10.001,46.304],[9.997,46.314],[9.982,46.324],[9.996,46.351],[9.966,46.363],[9.953,46.379],[9.934,46.375],[9.925,46.367],[9.906,46.381],[9.871,46.363],[9.838,46.361],[9.822,46.352],[9.777,46.335],[9.765,46.338],[9.744,46.352],[9.723,46.341],[9.726,46.319],[9.714,46.294],[9.705,46.291],[9.672,46.301],[9.638,46.286],[9.621,46.288],[9.61,46.295],[9.582,46.295],[9.561,46.306],[9.549,46.302],[9.534,46.312],[9.511,46.339],[9.499,46.361],[9.462,46.376],[9.467,46.398],[9.454,46.422],[9.458,46.441],[9.457,46.462],[9.463,46.468],[9.459,46.485],[9.461,46.507],[9.45,46.5],[9.433,46.497],[9.412,46.467],[9.4,46.47],[9.372,46.489],[9.374,46.5],[9.363,46.509],[9.352,46.505],[9.311,46.505],[9.282,46.496],[9.275,46.481],[9.278,46.461],[9.272,46.455],[9.248,46.447],[9.249,46.431],[9.275,46.419],[9.281,46.409],[9.276,46.395],[9.284,46.385],[9.277,46.369],[9.281,46.359],[9.292,46.356],[9.298,46.345],[9.292,46.338],[9.299,46.327],[9.282,46.308],[9.284,46.297],[9.274,46.291],[9.255,46.269],[9.246,46.233],[9.221,46.23],[9.218,46.215],[9.2,46.206],[9.192,46.179],[9.184,46.172],[9.16,46.171],[9.154,46.162],[9.137,46.154],[9.121,46.135],[9.072,46.12],[9.089,46.09],[9.078,46.065],[9.048,46.062],[9.024,46.053],[9.009,46.036],[9.009,46.027],[9.022,46.017],[9.028,45.994],[8.988,45.973],[9.014,45.96],[9.013,45.942],[9.019,45.929],[9.042,45.927],[9.07,45.912],[9.086,45.897],[9.067,45.876],[9.054,45.872],[9.049,45.852],[9.036,45.841],[9.031,45.821],[9.015,45.819],[8.995,45.824],[8.995,45.834],[8.986,45.838],[8.97,45.832],[8.95,45.843],[8.929,45.833],[8.913,45.831],[8.915,45.844],[8.942,45.87],[8.934,45.871],[8.932,45.885],[8.922,45.895],[8.925,45.906],[8.898,45.925],[8.893,45.935],[8.899,45.945],[8.894,45.958],[8.879,45.956],[8.849,45.973],[8.831,45.988],[8.788,45.991],[8.792,46.005],[8.806,46.022],[8.828,46.033],[8.834,46.05],[8.844,46.049],[8.855,46.062],[8.852,46.076],[8.833,46.083],[8.806,46.101],[8.783,46.094],[8.758,46.104],[8.743,46.122],[8.725,46.11],[8.714,46.098],[8.689,46.102],[8.66,46.112],[8.648,46.123],[8.613,46.121],[8.61,46.133],[8.593,46.145],[8.602,46.154],[8.573,46.165],[8.568,46.178],[8.541,46.198],[8.533,46.217],[8.47,46.233],[8.464,46.245],[8.445,46.253],[8.445,46.256],[8.456,46.264],[8.429,46.298],[8.44,46.305],[8.444,46.32],[8.465,46.334],[8.462,46.353],[8.469,46.365],[8.463,46.384],[8.469,46.412],[8.458,46.425],[8.465,46.445],[8.45,46.462],[8.437,46.464],[8.391,46.452],[8.364,46.451],[8.339,46.433],[8.322,46.426],[8.307,46.426],[8.291,46.409],[8.316,46.397],[8.315,46.381],[8.285,46.365],[8.261,46.36],[8.264,46.351],[8.25,46.342],[8.225,46.335],[8.212,46.311],[8.199,46.302],[8.164,46.296],[8.138,46.302],[8.08,46.261],[8.088,46.254],[8.107,46.25],[8.125,46.23],[8.139,46.225],[8.152,46.197],[8.164,46.182],[8.151,46.165],[8.154,46.148],[8.143,46.137],[8.115,46.13],[8.107,46.112],[8.033,46.098],[8.023,46.068],[8.032,46.047],[8.014,46.033],[8.012,46.012],[7.982,45.998],[7.922,45.997],[7.906,45.994],[7.895,45.981],[7.878,45.973],[7.877,45.955],[7.868,45.938],[7.876,45.926],[7.864,45.916],[7.819,45.926],[7.8,45.917],[7.769,45.937],[7.748,45.939],[7.735,45.924],[7.718,45.925],[7.709,45.933],[7.71,45.948],[7.681,45.957],[7.668,45.973],[7.658,45.977],[7.639,45.97],[7.61,45.969],[7.584,45.972],[7.578,45.986],[7.55,45.986],[7.542,45.978],[7.546,45.963],[7.538,45.955],[7.502,45.961],[7.471,45.946],[7.473,45.936],[7.442,45.93],[7.432,45.918],[7.412,45.909],[7.403,45.911],[7.382,45.897],[7.344,45.915],[7.323,45.911],[7.296,45.922],[7.259,45.89],[7.221,45.89],[7.2,45.875],[7.2,45.863],[7.191,45.859],[7.162,45.871],[7.153,45.879],[7.135,45.873],[7.118,45.86],[7.103,45.859],[7.094,45.876],[7.046,45.922],[7.022,45.917],[7.004,45.9],[7.006,45.889],[6.992,45.869],[6.955,45.861],[6.942,45.849],[6.895,45.843],[6.883,45.849],[6.865,45.833],[6.844,45.842],[6.826,45.838],[6.805,45.817],[6.812,45.798],[6.802,45.782],[6.807,45.747],[6.816,45.74],[6.811,45.729],[6.825,45.709],[6.847,45.691],[6.869,45.681],[6.893,45.676],[6.903,45.679],[6.916,45.652],[6.933,45.647],[6.96,45.655],[6.997,45.641],[6.999,45.634],[6.984,45.624],[6.985,45.612],[6.978,45.589],[6.995,45.576],[6.99,45.563],[6.995,45.546],[6.99,45.531],[7.004,45.517],[7.0,45.505],[7.02,45.498],[7.05,45.496],[7.045,45.48],[7.048,45.472],[7.066,45.474],[7.101,45.467],[7.099,45.461],[7.114,45.436],[7.131,45.427],[7.153,45.422],[7.183,45.405],[7.178,45.392],[7.159,45.373],[7.163,45.361],[7.138,45.351],[7.134,45.332],[7.11,45.327],[7.109,45.32],[7.135,45.281],[7.131,45.274],[7.135,45.254],[7.124,45.244],[7.111,45.246],[7.103,45.236],[7.068,45.211],[7.051,45.226],[7.017,45.215],[7.003,45.22],[6.989,45.21],[6.965,45.207],[6.967,45.196],[6.955,45.191],[6.947,45.17],[6.911,45.167],[6.894,45.169],[6.886,45.154],[6.896,45.141],[6.849,45.127],[6.823,45.144],[6.768,45.16],[6.74,45.137],[6.712,45.145],[6.68,45.14],[6.672,45.124],[6.633,45.115],[6.627,45.102],[6.646,45.082]],[[12.443,37.788],[12.47,37.747],[12.47,37.705],[12.49,37.69],[12.518,37.661],[12.535,37.658],[12.554,37.663],[12.567,37.66],[12.579,37.65],[12.596,37.647],[12.613,37.635],[12.62,37.616],[12.649,37.578],[12.663,37.566],[12.679,37.559],[12.782,37.581],[12.858,37.583],[12.897,37.577],[12.918,37.577],[12.943,37.572],[12.963,37.563],[12.989,37.541],[13.012,37.513],[13.02,37.496],[13.04,37.496],[13.055,37.504],[13.093,37.503],[13.13,37.493],[13.156,37.497],[13.186,37.48],[13.196,37.465],[13.217,37.459],[13.231,37.442],[13.26,37.417],[13.272,37.391],[13.293,37.39],[13.323,37.363],[13.345,37.36],[13.373,37.348],[13.388,37.336],[13.403,37.332],[13.429,37.304],[13.448,37.296],[13.463,37.295],[13.479,37.287],[13.51,37.291],[13.533,37.284],[13.551,37.287],[13.575,37.268],[13.577,37.261],[13.596,37.257],[13.622,37.234],[13.633,37.233],[13.656,37.212],[13.662,37.194],[13.684,37.188],[13.712,37.172],[13.728,37.169],[13.75,37.149],[13.775,37.145],[13.824,37.144],[13.842,37.135],[13.866,37.11],[13.902,37.097],[13.934,37.095],[13.979,37.109],[14.036,37.106],[14.067,37.111],[14.146,37.098],[14.209,37.077],[14.228,37.066],[14.259,37.058],[14.297,37.037],[14.363,36.979],[14.436,36.885],[14.46,36.828],[14.458,36.819],[14.48,36.803],[14.492,36.788],[14.516,36.788],[14.531,36.78],[14.556,36.782],[14.588,36.777],[14.607,36.768],[14.638,36.761],[14.669,36.743],[14.691,36.721],[14.708,36.718],[14.727,36.721],[14.747,36.72],[14.758,36.71],[14.776,36.711],[14.783,36.704],[14.819,36.717],[14.828,36.712],[14.849,36.727],[14.869,36.731],[14.901,36.728],[14.957,36.694],[14.973,36.693],[15.007,36.703],[15.021,36.701],[15.042,36.689],[15.057,36.662],[15.071,36.658],[15.08,36.648],[15.104,36.662],[15.112,36.673],[15.132,36.667],[15.138,36.682],[15.123,36.703],[15.121,36.732],[15.103,36.758],[15.095,36.776],[15.096,36.795],[15.106,36.806],[15.106,36.832],[15.112,36.851],[15.131,36.867],[15.158,36.919],[15.173,36.924],[15.18,36.939],[15.206,36.959],[15.239,36.972],[15.263,36.975],[15.259,36.98],[15.269,36.987],[15.265,36.995],[15.275,37.007],[15.283,37.006],[15.304,37.015],[15.315,37.004],[15.333,37.002],[15.337,37.007],[15.316,37.035],[15.303,37.043],[15.289,37.033],[15.276,37.04],[15.272,37.055],[15.278,37.064],[15.287,37.064],[15.3,37.079],[15.296,37.107],[15.282,37.11],[15.261,37.107],[15.237,37.115],[15.221,37.128],[15.22,37.143],[15.229,37.153],[15.244,37.146],[15.236,37.158],[15.211,37.151],[15.2,37.165],[15.201,37.178],[15.185,37.195],[15.183,37.216],[15.197,37.235],[15.211,37.245],[15.214,37.244],[15.217,37.224],[15.225,37.215],[15.223,37.234],[15.228,37.242],[15.247,37.232],[15.256,37.241],[15.245,37.248],[15.241,37.26],[15.225,37.27],[15.209,37.291],[15.197,37.292],[15.194,37.284],[15.172,37.293],[15.164,37.289],[15.135,37.31],[15.105,37.31],[15.096,37.326],[15.091,37.359],[15.091,37.412],[15.085,37.476],[15.115,37.531],[15.145,37.545],[15.166,37.572],[15.177,37.577],[15.172,37.61],[15.175,37.633],[15.2,37.657],[15.199,37.677],[15.218,37.708],[15.206,37.734],[15.212,37.754],[15.248,37.8],[15.276,37.823],[15.274,37.837],[15.286,37.848],[15.302,37.853],[15.298,37.865],[15.306,37.878],[15.349,37.913],[15.35,37.924],[15.494,38.075],[15.534,38.148],[15.563,38.183],[15.558,38.191],[15.571,38.231],[15.582,38.245],[15.611,38.257],[15.652,38.265],[15.65,38.27],[15.609,38.275],[15.578,38.284],[15.55,38.3],[15.517,38.296],[15.447,38.25],[15.378,38.224],[15.293,38.206],[15.261,38.208],[15.242,38.217],[15.253,38.246],[15.238,38.27],[15.239,38.236],[15.225,38.205],[15.208,38.182],[15.174,38.153],[15.102,38.122],[15.073,38.123],[15.056,38.132],[15.056,38.142],[15.037,38.151],[15.012,38.149],[14.968,38.154],[14.94,38.18],[14.915,38.192],[14.891,38.172],[14.861,38.169],[14.786,38.151],[14.744,38.163],[14.678,38.099],[14.632,38.071],[14.617,38.073],[14.585,38.059],[14.556,38.06],[14.533,38.045],[14.47,38.033],[14.447,38.034],[14.441,38.04],[14.422,38.039],[14.395,38.023],[14.357,38.015],[14.339,38.019],[14.312,38.008],[14.285,38.007],[14.27,38.013],[14.237,38.01],[14.172,38.019],[14.146,38.027],[14.127,38.017],[14.106,38.015],[14.062,38.019],[14.023,38.041],[14.006,38.032],[13.982,38.029],[13.972,38.034],[13.946,38.029],[13.891,38.002],[13.835,37.983],[13.797,37.975],[13.745,37.97],[13.711,37.977],[13.704,37.99],[13.651,37.999],[13.618,38.012],[13.604,38.024],[13.565,38.04],[13.541,38.058],[13.536,38.068],[13.542,38.078],[13.535,38.099],[13.538,38.112],[13.506,38.118],[13.503,38.108],[13.472,38.098],[13.443,38.095],[13.404,38.1],[13.384,38.109],[13.365,38.128],[13.376,38.152],[13.366,38.183],[13.327,38.203],[13.328,38.212],[13.315,38.225],[13.301,38.22],[13.272,38.199],[13.242,38.2],[13.243,38.192],[13.222,38.178],[13.189,38.169],[13.163,38.173],[13.162,38.184],[13.138,38.184],[13.122,38.191],[13.109,38.192],[13.079,38.174],[13.084,38.164],[13.072,38.151],[13.071,38.142],[13.053,38.137],[13.066,38.123],[13.077,38.087],[13.055,38.074],[13.039,38.072],[13.029,38.063],[12.997,38.048],[12.948,38.031],[12.893,38.024],[12.871,38.037],[12.868,38.051],[12.858,38.048],[12.827,38.066],[12.811,38.081],[12.79,38.112],[12.791,38.135],[12.78,38.15],[12.77,38.152],[12.772,38.169],[12.766,38.18],[12.74,38.176],[12.734,38.189],[12.716,38.178],[12.718,38.169],[12.737,38.14],[12.729,38.126],[12.71,38.109],[12.69,38.106],[12.681,38.113],[12.66,38.112],[12.662,38.093],[12.645,38.079],[12.626,38.07],[12.6,38.065],[12.578,38.07],[12.56,38.065],[12.552,38.05],[12.521,38.023],[12.496,38.014],[12.509,38.009],[12.505,37.994],[12.494,37.984],[12.499,37.966],[12.479,37.932],[12.459,37.909],[12.467,37.892],[12.485,37.874],[12.471,37.85],[12.465,37.847],[12.468,37.828],[12.459,37.816],[12.439,37.813],[12.425,37.801],[12.443,37.788]],[[15.195,38.781],[15.217,38.772],[15.227,38.777],[15.242,38.805],[15.213,38.81],[15.188,38.79],[15.195,38.781]],[[14.949,38.388],[14.978,38.369],[14.992,38.367],[15.005,38.376],[14.997,38.396],[14.981,38.41],[14.965,38.412],[14.969,38.425],[14.96,38.432],[14.954,38.418],[14.94,38.411],[14.949,38.388]],[[14.913,38.465],[14.935,38.459],[14.942,38.443],[14.959,38.443],[14.956,38.473],[14.98,38.479],[14.963,38.491],[14.96,38.523],[14.948,38.52],[14.926,38.523],[14.905,38.512],[14.9,38.478],[14.913,38.465]],[[14.807,38.553],[14.855,38.535],[14.867,38.536],[14.874,38.562],[14.866,38.583],[14.846,38.579],[14.808,38.582],[14.797,38.561],[14.807,38.553]],[[14.554,38.56],[14.592,38.555],[14.58,38.565],[14.576,38.581],[14.544,38.585],[14.541,38.572],[14.554,38.56]],[[14.345,38.532],[14.359,38.532],[14.366,38.55],[14.348,38.554],[14.34,38.548],[14.345,38.532]],[[14.253,40.543],[14.266,40.557],[14.26,40.561],[14.242,40.556],[14.212,40.562],[14.198,40.559],[14.197,40.536],[14.253,40.543]],[[13.873,40.698],[13.894,40.696],[13.905,40.702],[13.924,40.698],[13.937,40.706],[13.954,40.701],[13.965,40.712],[13.955,40.74],[13.924,40.751],[13.908,40.749],[13.884,40.759],[13.862,40.757],[13.865,40.743],[13.855,40.737],[13.861,40.72],[13.853,40.71],[13.873,40.698]],[[13.169,38.691],[13.2,38.709],[13.181,38.721],[13.163,38.713],[13.154,38.694],[13.169,38.691]],[[12.953,40.893],[12.948,40.887],[12.954,40.878],[12.969,40.894],[12.961,40.899],[12.969,40.922],[12.99,40.929],[12.984,40.936],[12.949,40.92],[12.943,40.897],[12.953,40.893]],[[12.86,35.855],[12.881,35.855],[12.877,35.875],[12.85,35.871],[12.86,35.855]],[[12.564,35.512],[12.594,35.498],[12.604,35.501],[12.608,35.494],[12.632,35.494],[12.625,35.505],[12.628,35.52],[12.608,35.524],[12.594,35.521],[12.541,35.529],[12.528,35.528],[12.518,35.519],[12.564,35.512]],[[12.437,37.881],[12.446,37.844],[12.451,37.848],[12.452,37.874],[12.447,37.899],[12.429,37.895],[12.437,37.881]],[[12.288,37.915],[12.337,37.92],[12.351,37.907],[12.366,37.906],[12.371,37.918],[12.344,37.937],[12.323,37.932],[12.308,37.956],[12.29,37.943],[12.28,37.946],[12.273,37.937],[12.288,37.915]],[[12.33,37.987],[12.351,37.989],[12.336,38.019],[12.32,38.001],[12.33,37.987]],[[12.045,37.96],[12.055,37.953],[12.083,37.946],[12.078,37.962],[12.061,37.99],[12.03,37.993],[12.045,37.96]],[[11.951,36.784],[11.956,36.772],[11.972,36.764],[11.982,36.744],[11.993,36.737],[12.027,36.736],[12.047,36.75],[12.055,36.763],[12.053,36.791],[12.013,36.825],[11.995,36.822],[11.973,36.835],[11.955,36.839],[11.928,36.825],[11.928,36.801],[11.951,36.784]],[[10.883,42.351],[10.905,42.326],[10.921,42.318],[10.932,42.339],[10.923,42.344],[10.924,42.356],[10.907,42.38],[10.88,42.389],[10.882,42.369],[10.868,42.368],[10.867,42.354],[10.883,42.351]],[[10.104,42.768],[10.122,42.742],[10.152,42.73],[10.188,42.736],[10.237,42.726],[10.239,42.748],[10.245,42.75],[10.27,42.738],[10.29,42.739],[10.291,42.753],[10.299,42.759],[10.313,42.756],[10.318,42.736],[10.326,42.745],[10.32,42.759],[10.345,42.764],[10.357,42.752],[10.377,42.719],[10.398,42.712],[10.41,42.716],[10.42,42.708],[10.432,42.713],[10.434,42.726],[10.423,42.742],[10.411,42.744],[10.41,42.754],[10.392,42.761],[10.435,42.777],[10.429,42.816],[10.442,42.848],[10.42,42.861],[10.411,42.873],[10.391,42.851],[10.38,42.828],[10.359,42.813],[10.356,42.8],[10.341,42.797],[10.32,42.804],[10.329,42.818],[10.297,42.819],[10.27,42.826],[10.275,42.818],[10.265,42.801],[10.248,42.799],[10.241,42.787],[10.229,42.789],[10.206,42.807],[10.185,42.811],[10.17,42.806],[10.137,42.807],[10.109,42.794],[10.103,42.784],[10.104,42.768]],[[10.297,42.316],[10.308,42.315],[10.33,42.322],[10.326,42.344],[10.313,42.351],[10.298,42.35],[10.289,42.326],[10.297,42.316]],[[10.052,42.574],[10.088,42.568],[10.1,42.575],[10.098,42.589],[10.087,42.601],[10.089,42.616],[10.08,42.619],[10.082,42.603],[10.066,42.587],[10.054,42.589],[10.046,42.581],[10.052,42.574]],[[9.812,43.003],[9.839,43.027],[9.847,43.046],[9.837,43.051],[9.837,43.062],[9.825,43.073],[9.801,43.053],[9.799,43.035],[9.793,43.021],[9.812,43.003]],[[8.147,40.725],[8.169,40.709],[8.175,40.695],[8.2,40.689],[8.204,40.681],[8.192,40.663],[8.187,40.639],[8.144,40.624],[8.15,40.586],[8.165,40.561],[8.162,40.578],[8.172,40.582],[8.173,40.594],[8.189,40.607],[8.191,40.617],[8.205,40.617],[8.218,40.601],[8.198,40.576],[8.209,40.571],[8.244,40.57],[8.247,40.581],[8.263,40.583],[8.268,40.589],[8.287,40.595],[8.307,40.585],[8.318,40.571],[8.315,40.561],[8.326,40.531],[8.339,40.508],[8.337,40.502],[8.368,40.496],[8.374,40.491],[8.386,40.453],[8.398,40.43],[8.402,40.409],[8.389,40.371],[8.38,40.358],[8.383,40.339],[8.393,40.34],[8.433,40.333],[8.443,40.319],[8.464,40.315],[8.467,40.298],[8.482,40.286],[8.474,40.247],[8.462,40.214],[8.467,40.2],[8.456,40.177],[8.461,40.172],[8.458,40.154],[8.472,40.131],[8.485,40.118],[8.493,40.087],[8.489,40.08],[8.454,40.051],[8.435,40.052],[8.426,40.045],[8.399,40.046],[8.38,40.039],[8.378,40.03],[8.4,40.033],[8.413,40.02],[8.41,39.999],[8.394,39.98],[8.401,39.957],[8.398,39.908],[8.402,39.899],[8.412,39.9],[8.431,39.888],[8.439,39.875],[8.469,39.901],[8.506,39.908],[8.524,39.902],[8.538,39.891],[8.552,39.864],[8.554,39.834],[8.545,39.795],[8.531,39.77],[8.512,39.753],[8.52,39.745],[8.51,39.733],[8.504,39.717],[8.501,39.717],[8.457,39.77],[8.444,39.758],[8.449,39.74],[8.447,39.718],[8.455,39.71],[8.445,39.676],[8.457,39.669],[8.45,39.633],[8.455,39.62],[8.464,39.617],[8.471,39.601],[8.451,39.546],[8.41,39.493],[8.387,39.476],[8.382,39.456],[8.393,39.447],[8.411,39.441],[8.413,39.428],[8.404,39.408],[8.38,39.384],[8.376,39.369],[8.388,39.363],[8.387,39.352],[8.4,39.337],[8.42,39.332],[8.418,39.324],[8.433,39.308],[8.437,39.29],[8.425,39.27],[8.411,39.264],[8.367,39.228],[8.372,39.209],[8.39,39.197],[8.396,39.198],[8.411,39.15],[8.41,39.164],[8.416,39.17],[8.434,39.159],[8.438,39.142],[8.435,39.132],[8.44,39.115],[8.462,39.12],[8.472,39.112],[8.478,39.096],[8.488,39.085],[8.478,39.061],[8.468,39.057],[8.46,39.065],[8.456,39.084],[8.431,39.098],[8.426,39.109],[8.411,39.102],[8.381,39.1],[8.37,39.114],[8.361,39.101],[8.351,39.098],[8.358,39.088],[8.35,39.076],[8.357,39.064],[8.365,39.03],[8.394,38.987],[8.407,38.959],[8.414,38.955],[8.442,38.968],[8.45,38.989],[8.454,39.027],[8.473,39.058],[8.498,39.063],[8.531,39.059],[8.55,39.044],[8.565,39.045],[8.575,39.032],[8.575,39.017],[8.565,39.001],[8.578,38.975],[8.589,38.964],[8.587,38.955],[8.603,38.963],[8.613,38.957],[8.622,38.94],[8.621,38.921],[8.607,38.904],[8.61,38.891],[8.635,38.896],[8.646,38.892],[8.641,38.883],[8.646,38.875],[8.637,38.867],[8.645,38.864],[8.658,38.871],[8.659,38.882],[8.652,38.894],[8.671,38.898],[8.666,38.909],[8.682,38.909],[8.716,38.924],[8.721,38.936],[8.761,38.917],[8.78,38.912],[8.779,38.904],[8.794,38.894],[8.807,38.9],[8.828,38.888],[8.835,38.877],[8.855,38.876],[8.906,38.908],[8.927,38.929],[8.994,38.976],[9.0,38.986],[9.012,38.987],[9.025,39.003],[9.024,39.02],[9.046,39.056],[9.016,39.087],[9.016,39.105],[9.009,39.123],[9.017,39.146],[9.039,39.173],[9.063,39.194],[9.083,39.206],[9.11,39.214],[9.14,39.189],[9.159,39.181],[9.169,39.189],[9.161,39.194],[9.165,39.204],[9.186,39.219],[9.213,39.227],[9.231,39.228],[9.243,39.218],[9.296,39.213],[9.305,39.205],[9.318,39.205],[9.338,39.194],[9.353,39.177],[9.371,39.174],[9.39,39.157],[9.392,39.145],[9.409,39.143],[9.434,39.13],[9.439,39.122],[9.484,39.135],[9.503,39.131],[9.509,39.124],[9.502,39.11],[9.523,39.095],[9.52,39.114],[9.53,39.127],[9.556,39.133],[9.568,39.153],[9.578,39.184],[9.565,39.19],[9.565,39.206],[9.573,39.248],[9.588,39.274],[9.603,39.291],[9.614,39.297],[9.631,39.296],[9.631,39.304],[9.609,39.315],[9.601,39.326],[9.598,39.349],[9.608,39.388],[9.631,39.433],[9.639,39.439],[9.645,39.461],[9.642,39.493],[9.632,39.503],[9.64,39.541],[9.652,39.55],[9.658,39.58],[9.648,39.644],[9.65,39.661],[9.663,39.684],[9.66,39.694],[9.676,39.711],[9.675,39.75],[9.669,39.772],[9.676,39.816],[9.685,39.842],[9.696,39.851],[9.683,39.87],[9.684,39.906],[9.696,39.921],[9.713,39.922],[9.711,39.939],[9.7,39.936],[9.689,39.945],[9.685,39.958],[9.687,39.985],[9.702,40.01],[9.706,40.034],[9.722,40.052],[9.735,40.076],[9.728,40.091],[9.689,40.108],[9.657,40.142],[9.646,40.168],[9.634,40.18],[9.626,40.207],[9.629,40.223],[9.624,40.252],[9.636,40.283],[9.682,40.337],[9.722,40.37],[9.743,40.381],[9.754,40.381],[9.764,40.391],[9.773,40.411],[9.774,40.427],[9.793,40.443],[9.817,40.488],[9.828,40.528],[9.794,40.546],[9.791,40.57],[9.782,40.581],[9.763,40.588],[9.752,40.601],[9.753,40.616],[9.742,40.637],[9.748,40.654],[9.75,40.678],[9.738,40.695],[9.718,40.706],[9.712,40.74],[9.718,40.749],[9.688,40.766],[9.671,40.785],[9.673,40.804],[9.692,40.811],[9.682,40.821],[9.689,40.836],[9.709,40.832],[9.727,40.843],[9.704,40.843],[9.677,40.862],[9.667,40.854],[9.654,40.863],[9.658,40.876],[9.648,40.881],[9.64,40.875],[9.636,40.884],[9.62,40.889],[9.645,40.918],[9.611,40.919],[9.588,40.9],[9.577,40.903],[9.561,40.921],[9.576,40.929],[9.569,40.943],[9.593,40.966],[9.584,40.976],[9.586,40.986],[9.598,40.991],[9.611,41.002],[9.623,40.994],[9.647,40.985],[9.664,40.998],[9.655,41.004],[9.642,41.001],[9.623,41.005],[9.607,41.018],[9.594,41.022],[9.579,41.005],[9.553,41.007],[9.563,41.034],[9.527,41.027],[9.521,41.01],[9.508,41.011],[9.523,41.031],[9.523,41.052],[9.54,41.062],[9.53,41.073],[9.538,41.087],[9.553,41.079],[9.562,41.084],[9.569,41.11],[9.561,41.12],[9.548,41.113],[9.54,41.12],[9.546,41.132],[9.524,41.157],[9.512,41.151],[9.516,41.146],[9.515,41.143],[9.468,41.143],[9.471,41.131],[9.45,41.105],[9.443,41.105],[9.443,41.135],[9.432,41.141],[9.43,41.155],[9.411,41.158],[9.42,41.165],[9.423,41.177],[9.406,41.176],[9.371,41.183],[9.363,41.208],[9.342,41.206],[9.331,41.195],[9.336,41.191],[9.332,41.186],[9.319,41.196],[9.301,41.191],[9.291,41.197],[9.299,41.204],[9.29,41.218],[9.281,41.206],[9.28,41.196],[9.272,41.199],[9.282,41.225],[9.271,41.236],[9.237,41.247],[9.235,41.258],[9.215,41.255],[9.195,41.24],[9.181,41.248],[9.165,41.236],[9.146,41.247],[9.138,41.239],[9.148,41.231],[9.161,41.234],[9.166,41.218],[9.154,41.197],[9.17,41.173],[9.149,41.155],[9.119,41.153],[9.122,41.148],[9.11,41.136],[9.065,41.127],[9.041,41.137],[9.012,41.124],[8.982,41.087],[8.95,41.059],[8.916,41.036],[8.892,41.027],[8.888,41.018],[8.869,41.014],[8.876,41.008],[8.87,40.993],[8.835,40.956],[8.793,40.924],[8.771,40.916],[8.74,40.918],[8.726,40.913],[8.711,40.918],[8.632,40.881],[8.625,40.865],[8.608,40.851],[8.579,40.838],[8.524,40.824],[8.469,40.819],[8.452,40.821],[8.418,40.84],[8.372,40.838],[8.316,40.844],[8.29,40.858],[8.248,40.893],[8.233,40.912],[8.236,40.917],[8.228,40.939],[8.236,40.949],[8.213,40.961],[8.202,40.973],[8.176,40.935],[8.191,40.921],[8.192,40.914],[8.213,40.903],[8.223,40.889],[8.219,40.87],[8.193,40.835],[8.184,40.812],[8.161,40.791],[8.166,40.766],[8.154,40.749],[8.133,40.731],[8.147,40.725]],[[9.693,40.888],[9.721,40.905],[9.743,40.912],[9.737,40.928],[9.724,40.917],[9.674,40.892],[9.693,40.888]],[[9.447,41.191],[9.469,41.177],[9.48,41.187],[9.468,41.188],[9.478,41.199],[9.485,41.222],[9.482,41.237],[9.469,41.245],[9.461,41.243],[9.456,41.223],[9.447,41.215],[9.454,41.202],[9.448,41.201],[9.436,41.187],[9.447,41.191]],[[9.383,41.21],[9.415,41.216],[9.437,41.215],[9.437,41.241],[9.431,41.26],[9.415,41.268],[9.414,41.252],[9.4,41.258],[9.401,41.245],[9.374,41.228],[9.383,41.21]],[[9.411,41.187],[9.422,41.193],[9.419,41.208],[9.398,41.198],[9.397,41.19],[9.411,41.187]],[[9.346,41.229],[9.36,41.242],[9.35,41.252],[9.334,41.248],[9.333,41.236],[9.346,41.229]],[[8.222,40.988],[8.255,40.985],[8.264,41.001],[8.24,41.029],[8.266,41.046],[8.282,41.066],[8.326,41.054],[8.339,41.061],[8.335,41.079],[8.348,41.09],[8.343,41.098],[8.323,41.106],[8.319,41.12],[8.302,41.105],[8.275,41.104],[8.283,41.075],[8.265,41.072],[8.251,41.051],[8.225,41.044],[8.22,41.029],[8.229,41.022],[8.211,41.004],[8.222,40.988]],[[8.24,39.141],[8.251,39.133],[8.255,39.104],[8.279,39.096],[8.297,39.097],[8.31,39.113],[8.308,39.129],[8.313,39.139],[8.306,39.163],[8.31,39.187],[8.297,39.179],[8.267,39.179],[8.257,39.17],[8.242,39.164],[8.23,39.165],[8.221,39.145],[8.24,39.141]]]}}